{
  "type": "FeatureCollection",
  "features": [
    {
      "type": "Feature",
      "properties": {
        "norad_id": 43706,
        "name": "BEIDOU-3 M17 (C36)",
        "group": "beidou",
        "lat": 45.358560946034764,
        "lon": -38.426901316043875,
        "alt_km": 21539.979536645344,
        "timestamp": "2025-12-13T16:48:32.975809+00:00",
        "meta_object_name": "BEIDOU-3 M17 (C36)",
        "meta_object_id": "2018-093A",
        "meta_epoch": "2025-12-12T04:17:11.485824",
        "meta_mean_motion": 1.86228421,
        "meta_eccentricity": 0.00062217,
        "meta_inclination": 54.1726,
        "meta_ra_of_asc_node": 188.6407,
        "meta_arg_of_pericenter": 307.45,
        "meta_mean_anomaly": 230.9206,
        "meta_ephemeris_type": 0,
        "meta_classification_type": "U",
        "meta_norad_cat_id": 43706,
        "meta_element_set_no": 999,
        "meta_rev_at_epoch": 4805,
        "meta_bstar": 0,
        "meta_mean_motion_dot": 7.8e-07,
        "meta_mean_motion_ddot": 0,
        "tle_line1": "1 43706U 18093A   25346.17860516  .00000078  00000+0  00000+0 0  9998",
        "tle_line2": "2 43706  54.1726 188.6407 0006221 307.4500 230.9206  1.86228421 48054"
      },
      "geometry": {
        "type": "Point",
        "coordinates": [
          -38.426901316043875,
          45.358560946034764
        ]
      }
    },
    {
      "type": "Feature",
      "properties": {
        "norad_id": 43707,
        "name": "BEIDOU-3 M18 (C37)",
        "group": "beidou",
        "lat": -25.024725396750416,
        "lon": 28.29849961111472,
        "alt_km": 21545.64566773835,
        "timestamp": "2025-12-13T16:48:32.975820+00:00",
        "meta_object_name": "BEIDOU-3 M18 (C37)",
        "meta_object_id": "2018-093B",
        "meta_epoch": "2025-12-12T07:27:53.740224",
        "meta_mean_motion": 1.86226578,
        "meta_eccentricity": 0.00063412,
        "meta_inclination": 54.1733,
        "meta_ra_of_asc_node": 188.6279,
        "meta_arg_of_pericenter": 353.0309,
        "meta_mean_anomaly": 7.0205,
        "meta_ephemeris_type": 0,
        "meta_classification_type": "U",
        "meta_norad_cat_id": 43707,
        "meta_element_set_no": 999,
        "meta_rev_at_epoch": 4805,
        "meta_bstar": 0,
        "meta_mean_motion_dot": 8e-07,
        "meta_mean_motion_ddot": 0,
        "tle_line1": "1 43707U 18093B   25346.31103866  .00000080  00000+0  00000+0 0  9996",
        "tle_line2": "2 43707  54.1733 188.6279 0006341 353.0309   7.0205  1.86226578 48050"
      },
      "geometry": {
        "type": "Point",
        "coordinates": [
          28.29849961111472,
          -25.024725396750416
        ]
      }
    },
    {
      "type": "Feature",
      "properties": {
        "norad_id": 44204,
        "name": "BEIDOU-3 IGSO-1 (C38)",
        "group": "beidou",
        "lat": 39.35970792800696,
        "lon": 69.83936429610972,
        "alt_km": 35902.8252157387,
        "timestamp": "2025-12-13T16:48:32.975832+00:00",
        "meta_object_name": "BEIDOU-3 IGSO-1 (C38)",
        "meta_object_id": "2019-023A",
        "meta_epoch": "2025-11-19T14:15:02.708640",
        "meta_mean_motion": 1.00252177,
        "meta_eccentricity": 0.0026966,
        "meta_inclination": 58.4003,
        "meta_ra_of_asc_node": 39.8168,
        "meta_arg_of_pericenter": 221.2202,
        "meta_mean_anomaly": 126.9723,
        "meta_ephemeris_type": 0,
        "meta_classification_type": "U",
        "meta_norad_cat_id": 44204,
        "meta_element_set_no": 999,
        "meta_rev_at_epoch": 510,
        "meta_bstar": 0,
        "meta_mean_motion_dot": -2.26e-06,
        "meta_mean_motion_ddot": 0,
        "tle_line1": "1 44204U 19023A   25323.59378135 -.00000226  00000+0  00000+0 0  9994",
        "tle_line2": "2 44204  58.4003  39.8168 0026966 221.2202 126.9723  1.00252177  5102"
      },
      "geometry": {
        "type": "Point",
        "coordinates": [
          69.83936429610972,
          39.35970792800696
        ]
      }
    },
    {
      "type": "Feature",
      "properties": {
        "norad_id": 44231,
        "name": "BEIDOU-2 G8 (C01)",
        "group": "beidou",
        "lat": 1.180755640950428,
        "lon": 119.28104786829753,
        "alt_km": 35818.35198103441,
        "timestamp": "2025-12-13T16:48:32.975847+00:00",
        "meta_object_name": "BEIDOU-2 G8 (C01)",
        "meta_object_id": "2019-027A",
        "meta_epoch": "2025-12-12T19:18:15.189408",
        "meta_mean_motion": 1.00267874,
        "meta_eccentricity": 0.00087096,
        "meta_inclination": 1.6624,
        "meta_ra_of_asc_node": 74.7062,
        "meta_arg_of_pericenter": 256.0238,
        "meta_mean_anomaly": 185.0734,
        "meta_ephemeris_type": 0,
        "meta_classification_type": "U",
        "meta_norad_cat_id": 44231,
        "meta_element_set_no": 999,
        "meta_rev_at_epoch": 2421,
        "meta_bstar": 0,
        "meta_mean_motion_dot": -2.36e-06,
        "meta_mean_motion_ddot": 0,
        "tle_line1": "1 44231U 19027A   25346.80434247 -.00000236  00000+0  00000+0 0  9995",
        "tle_line2": "2 44231   1.6624  74.7062 0008709 256.0238 185.0734  1.00267874 24213"
      },
      "geometry": {
        "type": "Point",
        "coordinates": [
          119.28104786829753,
          1.180755640950428
        ]
      }
    },
    {
      "type": "Feature",
      "properties": {
        "norad_id": 44337,
        "name": "BEIDOU-3 IGSO-2 (C39)",
        "group": "beidou",
        "lat": -48.48036889725703,
        "lon": 108.68910848854873,
        "alt_km": 35796.7986249565,
        "timestamp": "2025-12-13T16:48:32.975859+00:00",
        "meta_object_name": "BEIDOU-3 IGSO-2 (C39)",
        "meta_object_id": "2019-035A",
        "meta_epoch": "2025-12-10T21:20:38.716800",
        "meta_mean_motion": 1.00271557,
        "meta_eccentricity": 0.00373373,
        "meta_inclination": 55.2247,
        "meta_ra_of_asc_node": 160.5169,
        "meta_arg_of_pericenter": 202.3364,
        "meta_mean_anomaly": 156.6887,
        "meta_ephemeris_type": 0,
        "meta_classification_type": "U",
        "meta_norad_cat_id": 44337,
        "meta_element_set_no": 999,
        "meta_rev_at_epoch": 2377,
        "meta_bstar": 0,
        "meta_mean_motion_dot": -6.6e-07,
        "meta_mean_motion_ddot": 0,
        "tle_line1": "1 44337U 19035A   25344.88933700 -.00000066  00000+0  00000+0 0  9996",
        "tle_line2": "2 44337  55.2247 160.5169 0037337 202.3364 156.6887  1.00271557 23777"
      },
      "geometry": {
        "type": "Point",
        "coordinates": [
          108.68910848854873,
          -48.48036889725703
        ]
      }
    },
    {
      "type": "Feature",
      "properties": {
        "norad_id": 44542,
        "name": "BEIDOU-3 M24 (C46)",
        "group": "beidou",
        "lat": 12.945994891444682,
        "lon": -0.4900427729283466,
        "alt_km": 21547.096979417198,
        "timestamp": "2025-12-13T16:48:32.975870+00:00",
        "meta_object_name": "BEIDOU-3 M24 (C46)",
        "meta_object_id": "2019-061A",
        "meta_epoch": "2025-12-11T20:16:59.930112",
        "meta_mean_motion": 1.86229199,
        "meta_eccentricity": 0.00095416,
        "meta_inclination": 54.4002,
        "meta_ra_of_asc_node": 189.0463,
        "meta_arg_of_pericenter": 24.13,
        "meta_mean_anomaly": 335.9744,
        "meta_ephemeris_type": 0,
        "meta_classification_type": "U",
        "meta_norad_cat_id": 44542,
        "meta_element_set_no": 999,
        "meta_rev_at_epoch": 4230,
        "meta_bstar": 0,
        "meta_mean_motion_dot": 7.3e-07,
        "meta_mean_motion_ddot": 0,
        "tle_line1": "1 44542U 19061A   25345.84513808  .00000073  00000+0  00000+0 0  9990",
        "tle_line2": "2 44542  54.4002 189.0463 0009541  24.1300 335.9744  1.86229199 42307"
      },
      "geometry": {
        "type": "Point",
        "coordinates": [
          -0.4900427729283466,
          12.945994891444682
        ]
      }
    },
    {
      "type": "Feature",
      "properties": {
        "norad_id": 44543,
        "name": "BEIDOU-3 M23 (C45)",
        "group": "beidou",
        "lat": 52.29100272401928,
        "lon": -103.10580682424147,
        "alt_km": 21511.986358758924,
        "timestamp": "2025-12-13T16:48:32.975881+00:00",
        "meta_object_name": "BEIDOU-3 M23 (C45)",
        "meta_object_id": "2019-061B",
        "meta_epoch": "2025-12-12T05:53:39.748416",
        "meta_mean_motion": 1.86227487,
        "meta_eccentricity": 0.00061471,
        "meta_inclination": 54.3988,
        "meta_ra_of_asc_node": 189.0008,
        "meta_arg_of_pericenter": 23.325,
        "meta_mean_anomaly": 158.0349,
        "meta_ephemeris_type": 0,
        "meta_classification_type": "U",
        "meta_norad_cat_id": 44543,
        "meta_element_set_no": 999,
        "meta_rev_at_epoch": 4231,
        "meta_bstar": 0,
        "meta_mean_motion_dot": 7.9e-07,
        "meta_mean_motion_ddot": 0,
        "tle_line1": "1 44543U 19061B   25346.24559894  .00000079  00000+0  00000+0 0  9997",
        "tle_line2": "2 44543  54.3988 189.0008 0006147  23.3250 158.0349  1.86227487 42313"
      },
      "geometry": {
        "type": "Point",
        "coordinates": [
          -103.10580682424147,
          52.29100272401928
        ]
      }
    }
  ]
}